CCSDS_OMM_VERS = 2.0
CREATION_DATE  = 
ORIGINATOR     = 

OBJECT_NAME    = STARLINK-35935
OBJECT_ID      = 2025-265M
CENTER_NAME    = EARTH
REF_FRAME      = TEME
TIME_SYSTEM    = UTC
MEAN_ELEMENT_THEORY = SGP/SGP4

EPOCH          = 2025-11-29T04:00:01.998720
MEAN_MOTION    = 15.83189512
ECCENTRICITY   = .0001678
INCLINATION    = 43.0005
RA_OF_ASC_NODE = 135.1606
ARG_OF_PERICENTER = 270.4394
MEAN_ANOMALY   = 332.9938

EPHEMERIS_TYPE = 0
CLASSIFICATION_TYPE = U
NORAD_CAT_ID   = 66527
ELEMENT_SET_NO = 999
REV_AT_EPOCH   = 281
BSTAR          = -.75847E-2
MEAN_MOTION_DOT = -.149161E-1
MEAN_MOTION_DDOT = 0

CCSDS_OMM_VERS = 2.0
CREATION_DATE  = 
ORIGINATOR     = 

OBJECT_NAME    = STARLINK-35928
OBJECT_ID      = 2025-265N
CENTER_NAME    = EARTH
REF_FRAME      = TEME
TIME_SYSTEM    = UTC
MEAN_ELEMENT_THEORY = SGP/SGP4

EPOCH          = 2025-11-29T04:00:01.998720
MEAN_MOTION    = 15.83186494
ECCENTRICITY   = .0001619
INCLINATION    = 43.0007
RA_OF_ASC_NODE = 135.1547
ARG_OF_PERICENTER = 269.2674
MEAN_ANOMALY   = 336.4120

EPHEMERIS_TYPE = 0
CLASSIFICATION_TYPE = U
NORAD_CAT_ID   = 66528
ELEMENT_SET_NO = 999
REV_AT_EPOCH   = 281
BSTAR          = -.76669E-2
MEAN_MOTION_DOT = -.1505625E-1
MEAN_MOTION_DDOT = 0

CCSDS_OMM_VERS = 2.0
CREATION_DATE  = 
ORIGINATOR     = 

OBJECT_NAME    = STARLINK-35933
OBJECT_ID      = 2025-265P
CENTER_NAME    = EARTH
REF_FRAME      = TEME
TIME_SYSTEM    = UTC
MEAN_ELEMENT_THEORY = SGP/SGP4

EPOCH          = 2025-11-29T04:00:01.998720
MEAN_MOTION    = 15.83168273
ECCENTRICITY   = .0001705
INCLINATION    = 43.0006
RA_OF_ASC_NODE = 135.1485
ARG_OF_PERICENTER = 270.1111
MEAN_ANOMALY   = 337.9010

EPHEMERIS_TYPE = 0
CLASSIFICATION_TYPE = U
NORAD_CAT_ID   = 66529
ELEMENT_SET_NO = 999
REV_AT_EPOCH   = 281
BSTAR          = -.76751E-2
MEAN_MOTION_DOT = -.1505953E-1
MEAN_MOTION_DDOT = 0

CCSDS_OMM_VERS = 2.0
CREATION_DATE  = 
ORIGINATOR     = 

OBJECT_NAME    = STARLINK-35961
OBJECT_ID      = 2025-265Q
CENTER_NAME    = EARTH
REF_FRAME      = TEME
TIME_SYSTEM    = UTC
MEAN_ELEMENT_THEORY = SGP/SGP4

EPOCH          = 2025-11-29T04:00:01.998720
MEAN_MOTION    = 15.83182980
ECCENTRICITY   = .0001681
INCLINATION    = 43.0005
RA_OF_ASC_NODE = 135.1438
ARG_OF_PERICENTER = 270.4067
MEAN_ANOMALY   = 339.5785

EPHEMERIS_TYPE = 0
CLASSIFICATION_TYPE = U
NORAD_CAT_ID   = 66530
ELEMENT_SET_NO = 999
REV_AT_EPOCH   = 281
BSTAR          = -.7729E-2
MEAN_MOTION_DOT = -.1516187E-1
MEAN_MOTION_DDOT = 0

CCSDS_OMM_VERS = 2.0
CREATION_DATE  = 
ORIGINATOR     = 

OBJECT_NAME    = STARLINK-35960
OBJECT_ID      = 2025-265R
CENTER_NAME    = EARTH
REF_FRAME      = TEME
TIME_SYSTEM    = UTC
MEAN_ELEMENT_THEORY = SGP/SGP4

EPOCH          = 2025-11-29T04:00:01.998720
MEAN_MOTION    = 15.83194076
ECCENTRICITY   = .0001803
INCLINATION    = 43.0006
RA_OF_ASC_NODE = 135.1383
ARG_OF_PERICENTER = 270.2880
MEAN_ANOMALY   = 341.7104

EPHEMERIS_TYPE = 0
CLASSIFICATION_TYPE = U
NORAD_CAT_ID   = 66531
ELEMENT_SET_NO = 999
REV_AT_EPOCH   = 281
BSTAR          = -.77581E-2
MEAN_MOTION_DOT = -.1522016E-1
MEAN_MOTION_DDOT = 0

CCSDS_OMM_VERS = 2.0
CREATION_DATE  = 
ORIGINATOR     = 

OBJECT_NAME    = STARLINK-35914
OBJECT_ID      = 2025-265S
CENTER_NAME    = EARTH
REF_FRAME      = TEME
TIME_SYSTEM    = UTC
MEAN_ELEMENT_THEORY = SGP/SGP4

EPOCH          = 2025-11-29T04:00:01.998720
MEAN_MOTION    = 15.83185765
ECCENTRICITY   = .0001642
INCLINATION    = 43.0006
RA_OF_ASC_NODE = 135.1330
ARG_OF_PERICENTER = 267.7358
MEAN_ANOMALY   = 346.5027

EPHEMERIS_TYPE = 0
CLASSIFICATION_TYPE = U
NORAD_CAT_ID   = 66532
ELEMENT_SET_NO = 999
REV_AT_EPOCH   = 281
BSTAR          = -.77919E-2
MEAN_MOTION_DOT = -.1527191E-1
MEAN_MOTION_DDOT = 0

CCSDS_OMM_VERS = 2.0
CREATION_DATE  = 
ORIGINATOR     = 

OBJECT_NAME    = STARLINK-35707
OBJECT_ID      = 2025-265T
CENTER_NAME    = EARTH
REF_FRAME      = TEME
TIME_SYSTEM    = UTC
MEAN_ELEMENT_THEORY = SGP/SGP4

EPOCH          = 2025-11-29T04:00:01.998720
MEAN_MOTION    = 15.83173433
ECCENTRICITY   = .0001729
INCLINATION    = 43.0006
RA_OF_ASC_NODE = 135.1272
ARG_OF_PERICENTER = 268.5787
MEAN_ANOMALY   = 347.9958

EPHEMERIS_TYPE = 0
CLASSIFICATION_TYPE = U
NORAD_CAT_ID   = 66533
ELEMENT_SET_NO = 999
REV_AT_EPOCH   = 281
BSTAR          = -.78817E-2
MEAN_MOTION_DOT = -.1541902E-1
MEAN_MOTION_DDOT = 0

CCSDS_OMM_VERS = 2.0
CREATION_DATE  = 
ORIGINATOR     = 

OBJECT_NAME    = STARLINK-35976
OBJECT_ID      = 2025-265U
CENTER_NAME    = EARTH
REF_FRAME      = TEME
TIME_SYSTEM    = UTC
MEAN_ELEMENT_THEORY = SGP/SGP4

EPOCH          = 2025-11-29T04:00:01.998720
MEAN_MOTION    = 15.83158869
ECCENTRICITY   = .0001559
INCLINATION    = 43.0009
RA_OF_ASC_NODE = 135.1214
ARG_OF_PERICENTER = 266.4123
MEAN_ANOMALY   = 352.5209

EPHEMERIS_TYPE = 0
CLASSIFICATION_TYPE = U
NORAD_CAT_ID   = 66534
ELEMENT_SET_NO = 999
REV_AT_EPOCH   = 281
BSTAR          = -.79433E-2
MEAN_MOTION_DOT = -.1551389E-1
MEAN_MOTION_DDOT = 0

CCSDS_OMM_VERS = 2.0
CREATION_DATE  = 
ORIGINATOR     = 

OBJECT_NAME    = STARLINK-35514
OBJECT_ID      = 2025-265V
CENTER_NAME    = EARTH
REF_FRAME      = TEME
TIME_SYSTEM    = UTC
MEAN_ELEMENT_THEORY = SGP/SGP4

EPOCH          = 2025-11-29T04:00:01.998720
MEAN_MOTION    = 15.83162121
ECCENTRICITY   = .0001738
INCLINATION    = 43.0008
RA_OF_ASC_NODE = 135.1164
ARG_OF_PERICENTER = 269.0453
MEAN_ANOMALY   = 351.9371

EPHEMERIS_TYPE = 0
CLASSIFICATION_TYPE = U
NORAD_CAT_ID   = 66535
ELEMENT_SET_NO = 999
REV_AT_EPOCH   = 281
BSTAR          = -.79416E-2
MEAN_MOTION_DOT = -.1551459E-1
MEAN_MOTION_DDOT = 0

CCSDS_OMM_VERS = 2.0
CREATION_DATE  = 
ORIGINATOR     = 

OBJECT_NAME    = STARLINK-35640
OBJECT_ID      = 2025-265W
CENTER_NAME    = EARTH
REF_FRAME      = TEME
TIME_SYSTEM    = UTC
MEAN_ELEMENT_THEORY = SGP/SGP4

EPOCH          = 2025-11-29T04:00:01.998720
MEAN_MOTION    = 15.83178836
ECCENTRICITY   = .0001675
INCLINATION    = 43.0007
RA_OF_ASC_NODE = 135.1115
ARG_OF_PERICENTER = 267.2034
MEAN_ANOMALY   = 355.7675

EPHEMERIS_TYPE = 0
CLASSIFICATION_TYPE = U
NORAD_CAT_ID   = 66536
ELEMENT_SET_NO = 999
REV_AT_EPOCH   = 279
BSTAR          = -.80192E-2
MEAN_MOTION_DOT = -.1565776E-1
MEAN_MOTION_DDOT = 0

CCSDS_OMM_VERS = 2.0
CREATION_DATE  = 
ORIGINATOR     = 

OBJECT_NAME    = STARLINK-35582
OBJECT_ID      = 2025-265X
CENTER_NAME    = EARTH
REF_FRAME      = TEME
TIME_SYSTEM    = UTC
MEAN_ELEMENT_THEORY = SGP/SGP4

EPOCH          = 2025-11-29T04:00:01.998720
MEAN_MOTION    = 15.83165735
ECCENTRICITY   = .0001672
INCLINATION    = 43.0010
RA_OF_ASC_NODE = 135.1053
ARG_OF_PERICENTER = 269.2933
MEAN_ANOMALY   = 355.9678

EPHEMERIS_TYPE = 0
CLASSIFICATION_TYPE = U
NORAD_CAT_ID   = 66537
ELEMENT_SET_NO = 999
REV_AT_EPOCH   = 281
BSTAR          = -.80612E-2
MEAN_MOTION_DOT = -.1572088E-1
MEAN_MOTION_DDOT = 0

CCSDS_OMM_VERS = 2.0
CREATION_DATE  = 
ORIGINATOR     = 

OBJECT_NAME    = STARLINK-35577
OBJECT_ID      = 2025-265Y
CENTER_NAME    = EARTH
REF_FRAME      = TEME
TIME_SYSTEM    = UTC
MEAN_ELEMENT_THEORY = SGP/SGP4

EPOCH          = 2025-11-29T04:00:01.998720
MEAN_MOTION    = 15.83152689
ECCENTRICITY   = .0001747
INCLINATION    = 43.0009
RA_OF_ASC_NODE = 135.0993
ARG_OF_PERICENTER = 268.4337
MEAN_ANOMALY   = 359.1638

EPHEMERIS_TYPE = 0
CLASSIFICATION_TYPE = U
NORAD_CAT_ID   = 66538
ELEMENT_SET_NO = 999
REV_AT_EPOCH   = 281
BSTAR          = -.81263E-2
MEAN_MOTION_DOT = -.1582379E-1
MEAN_MOTION_DDOT = 0

