STARLINK-35935          
1 66527U 25265M   25333.16668980 -.01491610  00000+0 -75847-2 0  9992
2 66527  43.0005 135.1606 0001678 270.4394 332.9938 15.83189512  2814
STARLINK-35928          
1 66528U 25265N   25333.16668980 -.01505625  00000+0 -76669-2 0  9998
2 66528  43.0007 135.1547 0001619 269.2674 336.4120 15.83186494  2811
STARLINK-35933          
1 66529U 25265P   25333.16668980 -.01505953  00000+0 -76751-2 0  9995
2 66529  43.0006 135.1485 0001705 270.1111 337.9010 15.83168273  2814
STARLINK-35961          
1 66530U 25265Q   25333.16668980 -.01516187  00000+0 -77290-2 0  9997
2 66530  43.0005 135.1438 0001681 270.4067 339.5785 15.83182980  2817
STARLINK-35960          
1 66531U 25265R   25333.16668980 -.01522016  00000+0 -77581-2 0  9999
2 66531  43.0006 135.1383 0001803 270.2880 341.7104 15.83194076  2814
STARLINK-35914          
1 66532U 25265S   25333.16668980 -.01527191  00000+0 -77919-2 0  9994
2 66532  43.0006 135.1330 0001642 267.7358 346.5027 15.83185765  2811
STARLINK-35707          
1 66533U 25265T   25333.16668980 -.01541902  00000+0 -78817-2 0  9999
2 66533  43.0006 135.1272 0001729 268.5787 347.9958 15.83173433  2815
STARLINK-35976          
1 66534U 25265U   25333.16668980 -.01551389  00000+0 -79433-2 0  9995
2 66534  43.0009 135.1214 0001559 266.4123 352.5209 15.83158869  2814
STARLINK-35514          
1 66535U 25265V   25333.16668980 -.01551459  00000+0 -79416-2 0  9995
2 66535  43.0008 135.1164 0001738 269.0453 351.9371 15.83162121  2811
STARLINK-35640          
1 66536U 25265W   25333.16668980 -.01565776  00000+0 -80192-2 0  9996
2 66536  43.0007 135.1115 0001675 267.2034 355.7675 15.83178836  2798
STARLINK-35582          
1 66537U 25265X   25333.16668980 -.01572088  00000+0 -80612-2 0  9998
2 66537  43.0010 135.1053 0001672 269.2933 355.9678 15.83165735  2813
STARLINK-35577          
1 66538U 25265Y   25333.16668980 -.01582379  00000+0 -81263-2 0  9996
2 66538  43.0009 135.0993 0001747 268.4337 359.1638 15.83152689  2812
